{
  "type": "FeatureCollection",
  "features": [
    {
      "type": "Feature",
      "properties": {
        "norad_id": 67082,
        "name": "STARLINK-36035",
        "group": "last-30-days",
        "lat": 27.011112457154105,
        "lon": 19.26204846874912,
        "alt_km": 344.5896699418272,
        "timestamp": "2025-12-26T19:22:37.609022+00:00",
        "meta_object_name": "STARLINK-36035",
        "meta_object_id": "2025-298H",
        "meta_epoch": "2025-12-26T14:00:04.000032",
        "meta_mean_motion": 15.75706556,
        "meta_eccentricity": 0.0003807,
        "meta_inclination": 69.9985,
        "meta_ra_of_asc_node": 210.598,
        "meta_arg_of_pericenter": 267.7946,
        "meta_mean_anomaly": 53.3185,
        "meta_ephemeris_type": 0,
        "meta_classification_type": "U",
        "meta_norad_cat_id": 67082,
        "meta_element_set_no": 999,
        "meta_rev_at_epoch": 320,
        "meta_bstar": -0.012640126,
        "meta_mean_motion_dot": -0.01718444,
        "meta_mean_motion_ddot": 0,
        "tle_line1": "1 67082U 25298H   25360.58337963 -.01718444  00000+0 -12640-1 0  9993",
        "tle_line2": "2 67082  69.9985 210.5980 0003807 267.7946  53.3185 15.75706556  3202"
      },
      "geometry": {
        "type": "Point",
        "coordinates": [
          19.26204846874912,
          27.011112457154105
        ]
      }
    },
    {
      "type": "Feature",
      "properties": {
        "norad_id": 67083,
        "name": "STARLINK-36170",
        "group": "last-30-days",
        "lat": 25.09978083552775,
        "lon": 20.13610106633181,
        "alt_km": 344.7446750611198,
        "timestamp": "2025-12-26T19:22:37.609032+00:00",
        "meta_object_name": "STARLINK-36170",
        "meta_object_id": "2025-298J",
        "meta_epoch": "2025-12-26T14:00:04.000032",
        "meta_mean_motion": 15.75699037,
        "meta_eccentricity": 0.00037261,
        "meta_inclination": 69.9985,
        "meta_ra_of_asc_node": 210.5952,
        "meta_arg_of_pericenter": 265.9841,
        "meta_mean_anomaly": 57.2004,
        "meta_ephemeris_type": 0,
        "meta_classification_type": "U",
        "meta_norad_cat_id": 67083,
        "meta_element_set_no": 999,
        "meta_rev_at_epoch": 320,
        "meta_bstar": -0.012646087,
        "meta_mean_motion_dot": -0.01718577,
        "meta_mean_motion_ddot": 0,
        "tle_line1": "1 67083U 25298J   25360.58337963 -.01718577  00000+0 -12646-1 0  9997",
        "tle_line2": "2 67083  69.9985 210.5952 0003726 265.9841  57.2004 15.75699037  3204"
      },
      "geometry": {
        "type": "Point",
        "coordinates": [
          20.13610106633181,
          25.09978083552775
        ]
      }
    },
    {
      "type": "Feature",
      "properties": {
        "norad_id": 67084,
        "name": "STARLINK-36166",
        "group": "last-30-days",
        "lat": 23.26127342459973,
        "lon": 20.948877163202436,
        "alt_km": 345.04988478107407,
        "timestamp": "2025-12-26T19:22:37.609045+00:00",
        "meta_object_name": "STARLINK-36166",
        "meta_object_id": "2025-298K",
        "meta_epoch": "2025-12-26T14:00:04.000032",
        "meta_mean_motion": 15.75697376,
        "meta_eccentricity": 0.00037645,
        "meta_inclination": 69.998,
        "meta_ra_of_asc_node": 210.5924,
        "meta_arg_of_pericenter": 267.6788,
        "meta_mean_anomaly": 57.4889,
        "meta_ephemeris_type": 0,
        "meta_classification_type": "U",
        "meta_norad_cat_id": 67084,
        "meta_element_set_no": 999,
        "meta_rev_at_epoch": 314,
        "meta_bstar": -0.012652649,
        "meta_mean_motion_dot": -0.01719292,
        "meta_mean_motion_ddot": 0,
        "tle_line1": "1 67084U 25298K   25360.58337963 -.01719292  00000+0 -12653-1 0  9991",
        "tle_line2": "2 67084  69.9980 210.5924 0003764 267.6788  57.4889 15.75697376  3140"
      },
      "geometry": {
        "type": "Point",
        "coordinates": [
          20.948877163202436,
          23.26127342459973
        ]
      }
    },
    {
      "type": "Feature",
      "properties": {
        "norad_id": 67085,
        "name": "STARLINK-35794",
        "group": "last-30-days",
        "lat": 21.43863386844352,
        "lon": 21.732369825835402,
        "alt_km": 345.23527796009967,
        "timestamp": "2025-12-26T19:22:37.609057+00:00",
        "meta_object_name": "STARLINK-35794",
        "meta_object_id": "2025-298L",
        "meta_epoch": "2025-12-26T14:00:04.000032",
        "meta_mean_motion": 15.75693193,
        "meta_eccentricity": 0.00038545,
        "meta_inclination": 69.9983,
        "meta_ra_of_asc_node": 210.5906,
        "meta_arg_of_pericenter": 266.273,
        "meta_mean_anomaly": 60.8595,
        "meta_ephemeris_type": 0,
        "meta_classification_type": "U",
        "meta_norad_cat_id": 67085,
        "meta_element_set_no": 999,
        "meta_rev_at_epoch": 320,
        "meta_bstar": -0.012637488,
        "meta_mean_motion_dot": -0.0171728,
        "meta_mean_motion_ddot": 0,
        "tle_line1": "1 67085U 25298L   25360.58337963 -.01717280  00000+0 -12637-1 0  9999",
        "tle_line2": "2 67085  69.9983 210.5906 0003854 266.2730  60.8595 15.75693193  3208"
      },
      "geometry": {
        "type": "Point",
        "coordinates": [
          21.732369825835402,
          21.43863386844352
        ]
      }
    },
    {
      "type": "Feature",
      "properties": {
        "norad_id": 67086,
        "name": "STARLINK-35841",
        "group": "last-30-days",
        "lat": 19.454051465506765,
        "lon": 22.560471717769598,
        "alt_km": 345.5418104529999,
        "timestamp": "2025-12-26T19:22:37.609067+00:00",
        "meta_object_name": "STARLINK-35841",
        "meta_object_id": "2025-298M",
        "meta_epoch": "2025-12-26T14:00:04.000032",
        "meta_mean_motion": 15.75682199,
        "meta_eccentricity": 0.0003748,
        "meta_inclination": 69.9982,
        "meta_ra_of_asc_node": 210.5875,
        "meta_arg_of_pericenter": 267.9921,
        "meta_mean_anomaly": 61.2774,
        "meta_ephemeris_type": 0,
        "meta_classification_type": "U",
        "meta_norad_cat_id": 67086,
        "meta_element_set_no": 999,
        "meta_rev_at_epoch": 320,
        "meta_bstar": -0.012617714,
        "meta_mean_motion_dot": -0.01714064,
        "meta_mean_motion_ddot": 0,
        "tle_line1": "1 67086U 25298M   25360.58337963 -.01714064  00000+0 -12618-1 0  9996",
        "tle_line2": "2 67086  69.9982 210.5875 0003748 267.9921  61.2774 15.75682199  3203"
      },
      "geometry": {
        "type": "Point",
        "coordinates": [
          22.560471717769598,
          19.454051465506765
        ]
      }
    },
    {
      "type": "Feature",
      "properties": {
        "norad_id": 67087,
        "name": "STARLINK-35842",
        "group": "last-30-days",
        "lat": 35.778014552385514,
        "lon": 14.756331089751331,
        "alt_km": 355.0634000366754,
        "timestamp": "2025-12-26T19:22:37.609077+00:00",
        "meta_object_name": "STARLINK-35842",
        "meta_object_id": "2025-298N",
        "meta_epoch": "2025-12-26T14:00:04.000032",
        "meta_mean_motion": 15.71972643,
        "meta_eccentricity": 0.00037653,
        "meta_inclination": 69.9992,
        "meta_ra_of_asc_node": 210.6052,
        "meta_arg_of_pericenter": 264.4903,
        "meta_mean_anomaly": 50.2178,
        "meta_ephemeris_type": 0,
        "meta_classification_type": "U",
        "meta_norad_cat_id": 67087,
        "meta_element_set_no": 999,
        "meta_rev_at_epoch": 320,
        "meta_bstar": -0.021459561,
        "meta_mean_motion_dot": -0.02414784,
        "meta_mean_motion_ddot": 0,
        "tle_line1": "1 67087U 25298N   25360.58337963 -.02414784  00000+0 -21460-1 0  9999",
        "tle_line2": "2 67087  69.9992 210.6052 0003765 264.4903  50.2178 15.71972643  3202"
      },
      "geometry": {
        "type": "Point",
        "coordinates": [
          14.756331089751331,
          35.778014552385514
        ]
      }
    },
    {
      "type": "Feature",
      "properties": {
        "norad_id": 67088,
        "name": "STARLINK-35882",
        "group": "last-30-days",
        "lat": 15.79429459336335,
        "lon": 24.03488441883012,
        "alt_km": 345.9808490096748,
        "timestamp": "2025-12-26T19:22:37.609089+00:00",
        "meta_object_name": "STARLINK-35882",
        "meta_object_id": "2025-298P",
        "meta_epoch": "2025-12-26T14:00:04.000032",
        "meta_mean_motion": 15.75679531,
        "meta_eccentricity": 0.00037811,
        "meta_inclination": 69.9984,
        "meta_ra_of_asc_node": 210.5835,
        "meta_arg_of_pericenter": 268.0728,
        "meta_mean_anomaly": 65.1189,
        "meta_ephemeris_type": 0,
        "meta_classification_type": "U",
        "meta_norad_cat_id": 67088,
        "meta_element_set_no": 999,
        "meta_rev_at_epoch": 320,
        "meta_bstar": -0.012646246,
        "meta_mean_motion_dot": -0.01717344,
        "meta_mean_motion_ddot": 0,
        "tle_line1": "1 67088U 25298P   25360.58337963 -.01717344  00000+0 -12646-1 0  9993",
        "tle_line2": "2 67088  69.9984 210.5835 0003781 268.0728  65.1189 15.75679531  3206"
      },
      "geometry": {
        "type": "Point",
        "coordinates": [
          24.03488441883012,
          15.79429459336335
        ]
      }
    }
  ]
}